{
  "type": "FeatureCollection",
  "features": [
    {
      "type": "Feature",
      "properties": {
        "routeId": "line2",
        "source": "admin-web-route-editor"
      },
      "geometry": {
        "type": "LineString",
        "coordinates": [
          [
            99.899588,
            20.05913
          ],
          [
            99.899498,
            20.059132
          ],
          [
            99.8994,
            20.059126
          ],
          [
            99.899205,
            20.0591
          ],
          [
            99.899009,
            20.059059
          ],
          [
            99.898818,
            20.059005
          ],
          [
            99.898428,
            20.058836
          ],
          [
            99.898071,
            20.058614
          ],
          [
            99.8977,
            20.05832
          ],
          [
            99.89754,
            20.058137
          ],
          [
            99.897393,
            20.057946
          ],
          [
            99.89712,
            20.057526
          ],
          [
            99.896862,
            20.057083
          ],
          [
            99.896772,
            20.056905
          ],
          [
            99.896672,
            20.056731
          ],
          [
            99.896602,
            20.056606
          ],
          [
            99.896572,
            20.056547
          ],
          [
            99.896544,
            20.056479
          ],
          [
            99.896481,
            20.056327
          ],
          [
            99.896463,
            20.056246
          ],
          [
            99.896456,
            20.056162
          ],
          [
            99.896437,
            20.056
          ],
          [
            99.896426,
            20.055838
          ],
          [
            99.896425,
            20.055763
          ],
          [
            99.896419,
            20.055689
          ],
          [
            99.89642,
            20.055688
          ],
          [
            99.896408,
            20.055546
          ],
          [
            99.896387,
            20.055468
          ],
          [
            99.896376,
            20.05543
          ],
          [
            99.89636,
            20.055356
          ],
          [
            99.89632,
            20.055271
          ],
          [
            99.896274,
            20.055205
          ],
          [
            99.896245,
            20.055177
          ],
          [
            99.896209,
            20.055152
          ],
          [
            99.896189,
            20.055136
          ],
          [
            99.896145,
            20.055115
          ],
          [
            99.896074,
            20.055082
          ],
          [
            99.896037,
            20.055071
          ],
          [
            99.895998,
            20.055062
          ],
          [
            99.895854,
            20.055063
          ],
          [
            99.895701,
            20.055074
          ],
          [
            99.895546,
            20.055082
          ],
          [
            99.895388,
            20.055067
          ],
          [
            99.895326,
            20.055055
          ],
          [
            99.895234,
            20.055027
          ],
          [
            99.895087,
            20.054971
          ],
          [
            99.894794,
            20.054845
          ],
          [
            99.894503,
            20.054727
          ],
          [
            99.894351,
            20.054665
          ],
          [
            99.894185,
            20.054617
          ],
          [
            99.894016,
            20.054573
          ],
          [
            99.893851,
            20.054519
          ],
          [
            99.893695,
            20.054454
          ],
          [
            99.893546,
            20.054376
          ],
          [
            99.893473,
            20.054335
          ],
          [
            99.8934,
            20.054287
          ],
          [
            99.893264,
            20.054187
          ],
          [
            99.893127,
            20.054092
          ],
          [
            99.89308,
            20.054056
          ],
          [
            99.892916,
            20.053904
          ],
          [
            99.892837,
            20.053823
          ],
          [
            99.892808,
            20.053793
          ],
          [
            99.892768,
            20.053735
          ],
          [
            99.892649,
            20.053545
          ],
          [
            99.892541,
            20.053333
          ],
          [
            99.892462,
            20.053063
          ],
          [
            99.89235,
            20.052683
          ],
          [
            99.892251,
            20.052447
          ],
          [
            99.892234,
            20.052408
          ],
          [
            99.892196,
            20.052339
          ],
          [
            99.892165,
            20.052285
          ],
          [
            99.892127,
            20.052233
          ],
          [
            99.892048,
            20.052137
          ],
          [
            99.891728,
            20.051753
          ],
          [
            99.891646,
            20.051657
          ],
          [
            99.891604,
            20.051608
          ],
          [
            99.891567,
            20.051557
          ],
          [
            99.891433,
            20.051316
          ],
          [
            99.891299,
            20.051082
          ],
          [
            99.891252,
            20.050993
          ],
          [
            99.891213,
            20.050909
          ],
          [
            99.891176,
            20.050823
          ],
          [
            99.891109,
            20.050585
          ],
          [
            99.891091,
            20.050524
          ],
          [
            99.891083,
            20.050408
          ],
          [
            99.89108,
            20.049983
          ],
          [
            99.891082,
            20.049877
          ],
          [
            99.891088,
            20.04977
          ],
          [
            99.891118,
            20.049558
          ],
          [
            99.89114,
            20.049451
          ],
          [
            99.891169,
            20.049346
          ],
          [
            99.891199,
            20.049234
          ],
          [
            99.891216,
            20.049172
          ],
          [
            99.891233,
            20.049129
          ],
          [
            99.891287,
            20.048998
          ],
          [
            99.891356,
            20.048874
          ],
          [
            99.891436,
            20.048883
          ],
          [
            99.891497,
            20.048878
          ],
          [
            99.89168,
            20.048807
          ],
          [
            99.891934,
            20.048698
          ],
          [
            99.892187,
            20.048583
          ],
          [
            99.892697,
            20.048355
          ],
          [
            99.892822,
            20.048299
          ],
          [
            99.892949,
            20.048242
          ],
          [
            99.892988,
            20.048227
          ],
          [
            99.893082,
            20.048193
          ],
          [
            99.893292,
            20.048145
          ],
          [
            99.893267,
            20.048084
          ],
          [
            99.893232,
            20.048029
          ],
          [
            99.893188,
            20.047971
          ],
          [
            99.893139,
            20.047927
          ],
          [
            99.893061,
            20.047968
          ],
          [
            99.892987,
            20.048017
          ],
          [
            99.892941,
            20.047873
          ],
          [
            99.893018,
            20.04774
          ],
          [
            99.8931,
            20.047613
          ],
          [
            99.893178,
            20.047494
          ],
          [
            99.893185,
            20.047479
          ],
          [
            99.893178,
            20.047366
          ],
          [
            99.893173,
            20.04723
          ],
          [
            99.893052,
            20.047226
          ],
          [
            99.892935,
            20.047597
          ],
          [
            99.892942,
            20.047873
          ],
          [
            99.892992,
            20.048039
          ],
          [
            99.893028,
            20.048212
          ],
          [
            99.892822,
            20.048299
          ],
          [
            99.892302,
            20.048532
          ],
          [
            99.891945,
            20.048692
          ],
          [
            99.891722,
            20.048788
          ],
          [
            99.891626,
            20.048827
          ],
          [
            99.891494,
            20.048647
          ],
          [
            99.891505,
            20.048628
          ],
          [
            99.891592,
            20.048486
          ],
          [
            99.891671,
            20.048359
          ],
          [
            99.89176,
            20.048254
          ],
          [
            99.891946,
            20.048036
          ],
          [
            99.891993,
            20.047985
          ],
          [
            99.892031,
            20.047929
          ],
          [
            99.8921,
            20.047804
          ],
          [
            99.892124,
            20.047733
          ],
          [
            99.892143,
            20.04766
          ],
          [
            99.892171,
            20.047507
          ],
          [
            99.892187,
            20.047325
          ],
          [
            99.892174,
            20.047143
          ],
          [
            99.892165,
            20.047067
          ],
          [
            99.89215,
            20.046998
          ],
          [
            99.892111,
            20.046854
          ],
          [
            99.892044,
            20.046716
          ],
          [
            99.891966,
            20.04659
          ],
          [
            99.891891,
            20.046459
          ],
          [
            99.89183,
            20.046321
          ],
          [
            99.891705,
            20.046046
          ],
          [
            99.891562,
            20.045776
          ],
          [
            99.891417,
            20.045507
          ],
          [
            99.891348,
            20.045358
          ],
          [
            99.891312,
            20.045199
          ],
          [
            99.891305,
            20.044857
          ],
          [
            99.891311,
            20.044775
          ],
          [
            99.891328,
            20.044694
          ],
          [
            99.891341,
            20.044614
          ],
          [
            99.891372,
            20.044536
          ],
          [
            99.891513,
            20.044226
          ],
          [
            99.891616,
            20.04422
          ],
          [
            99.891662,
            20.044221
          ],
          [
            99.891741,
            20.044221
          ],
          [
            99.891823,
            20.04422
          ],
          [
            99.892025,
            20.044215
          ],
          [
            99.892218,
            20.044189
          ],
          [
            99.892309,
            20.044175
          ],
          [
            99.892554,
            20.044139
          ],
          [
            99.8928,
            20.044112
          ],
          [
            99.893002,
            20.04408
          ],
          [
            99.89347,
            20.043873
          ],
          [
            99.893479,
            20.043965
          ],
          [
            99.893489,
            20.044023
          ],
          [
            99.893505,
            20.044058
          ],
          [
            99.893527,
            20.044078
          ],
          [
            99.893557,
            20.044085
          ],
          [
            99.893738,
            20.044069
          ],
          [
            99.893877,
            20.044071
          ],
          [
            99.893951,
            20.044024
          ],
          [
            99.893967,
            20.043904
          ],
          [
            99.893955,
            20.043811
          ],
          [
            99.893966,
            20.043679
          ],
          [
            99.893892,
            20.043696
          ],
          [
            99.893819,
            20.043715
          ],
          [
            99.89371,
            20.043765
          ],
          [
            99.893458,
            20.043879
          ],
          [
            99.892997,
            20.044081
          ],
          [
            99.892809,
            20.044112
          ],
          [
            99.892566,
            20.044138
          ],
          [
            99.892226,
            20.044188
          ],
          [
            99.892023,
            20.044216
          ],
          [
            99.891666,
            20.044221
          ],
          [
            99.891616,
            20.04422
          ],
          [
            99.891513,
            20.044226
          ],
          [
            99.891562,
            20.044111
          ],
          [
            99.891652,
            20.04389
          ],
          [
            99.891663,
            20.043866
          ],
          [
            99.89169,
            20.043758
          ],
          [
            99.891723,
            20.043609
          ],
          [
            99.891885,
            20.043305
          ],
          [
            99.891937,
            20.043208
          ],
          [
            99.891969,
            20.043095
          ],
          [
            99.892,
            20.042988
          ],
          [
            99.892028,
            20.042885
          ],
          [
            99.892041,
            20.042838
          ],
          [
            99.892098,
            20.042666
          ],
          [
            99.892119,
            20.042615
          ],
          [
            99.892126,
            20.042594
          ],
          [
            99.892141,
            20.042563
          ],
          [
            99.892186,
            20.042463
          ],
          [
            99.892239,
            20.042349
          ],
          [
            99.892332,
            20.042239
          ],
          [
            99.892454,
            20.042099
          ],
          [
            99.892513,
            20.042038
          ],
          [
            99.892593,
            20.041971
          ],
          [
            99.892685,
            20.041908
          ],
          [
            99.892817,
            20.041846
          ],
          [
            99.892979,
            20.04178
          ],
          [
            99.893159,
            20.041748
          ],
          [
            99.893214,
            20.0416
          ],
          [
            99.893701,
            20.041523
          ],
          [
            99.893789,
            20.041511
          ],
          [
            99.893877,
            20.041484
          ],
          [
            99.893964,
            20.041457
          ],
          [
            99.894037,
            20.041411
          ],
          [
            99.894113,
            20.04137
          ],
          [
            99.894246,
            20.041361
          ],
          [
            99.894286,
            20.041353
          ],
          [
            99.894332,
            20.04134
          ],
          [
            99.894382,
            20.041314
          ],
          [
            99.894505,
            20.041248
          ],
          [
            99.894381,
            20.041314
          ],
          [
            99.894332,
            20.041341
          ],
          [
            99.894276,
            20.041356
          ],
          [
            99.894243,
            20.041361
          ],
          [
            99.894112,
            20.04137
          ],
          [
            99.894037,
            20.041411
          ],
          [
            99.893964,
            20.041457
          ],
          [
            99.89379,
            20.041511
          ],
          [
            99.893717,
            20.041521
          ],
          [
            99.893213,
            20.0416
          ],
          [
            99.893158,
            20.041748
          ],
          [
            99.892984,
            20.041778
          ],
          [
            99.892808,
            20.041851
          ],
          [
            99.892685,
            20.041908
          ],
          [
            99.892593,
            20.041971
          ],
          [
            99.892553,
            20.042004
          ],
          [
            99.892513,
            20.042038
          ],
          [
            99.892463,
            20.042089
          ],
          [
            99.892416,
            20.042143
          ],
          [
            99.892313,
            20.042262
          ],
          [
            99.892238,
            20.042349
          ],
          [
            99.892219,
            20.042391
          ],
          [
            99.892156,
            20.042529
          ],
          [
            99.892127,
            20.042594
          ],
          [
            99.892093,
            20.042683
          ],
          [
            99.892041,
            20.042838
          ],
          [
            99.891937,
            20.043208
          ],
          [
            99.891723,
            20.043609
          ],
          [
            99.891584,
            20.043786
          ],
          [
            99.891526,
            20.04386
          ],
          [
            99.891472,
            20.043982
          ],
          [
            99.891382,
            20.044188
          ],
          [
            99.891294,
            20.044396
          ],
          [
            99.891256,
            20.04449
          ],
          [
            99.891234,
            20.044535
          ],
          [
            99.891222,
            20.044583
          ],
          [
            99.891201,
            20.044677
          ],
          [
            99.891186,
            20.04477
          ],
          [
            99.891179,
            20.044964
          ],
          [
            99.891182,
            20.045054
          ],
          [
            99.891195,
            20.045142
          ],
          [
            99.891236,
            20.045315
          ],
          [
            99.891293,
            20.045484
          ],
          [
            99.891351,
            20.045657
          ],
          [
            99.891504,
            20.045968
          ],
          [
            99.891728,
            20.046247
          ],
          [
            99.891846,
            20.046399
          ],
          [
            99.891891,
            20.046459
          ],
          [
            99.891934,
            20.046536
          ],
          [
            99.892026,
            20.046685
          ],
          [
            99.892047,
            20.046722
          ],
          [
            99.892066,
            20.046762
          ],
          [
            99.892108,
            20.046845
          ],
          [
            99.892157,
            20.047028
          ],
          [
            99.892166,
            20.047077
          ],
          [
            99.892172,
            20.047127
          ],
          [
            99.892181,
            20.047225
          ],
          [
            99.892187,
            20.047331
          ],
          [
            99.892178,
            20.047425
          ],
          [
            99.892169,
            20.047519
          ],
          [
            99.892152,
            20.047612
          ],
          [
            99.892142,
            20.047661
          ],
          [
            99.892131,
            20.04771
          ],
          [
            99.8921,
            20.047805
          ],
          [
            99.892058,
            20.047883
          ],
          [
            99.892035,
            20.047922
          ],
          [
            99.891994,
            20.047985
          ],
          [
            99.891902,
            20.048088
          ],
          [
            99.891734,
            20.048284
          ],
          [
            99.891669,
            20.04836
          ],
          [
            99.891611,
            20.048455
          ],
          [
            99.891499,
            20.048638
          ],
          [
            99.891394,
            20.048808
          ],
          [
            99.891294,
            20.048984
          ],
          [
            99.891251,
            20.049087
          ],
          [
            99.891211,
            20.049191
          ],
          [
            99.891152,
            20.049405
          ],
          [
            99.891131,
            20.049494
          ],
          [
            99.891115,
            20.049584
          ],
          [
            99.891089,
            20.049762
          ],
          [
            99.891081,
            20.049944
          ],
          [
            99.891082,
            20.050126
          ],
          [
            99.891083,
            20.050305
          ],
          [
            99.891083,
            20.050393
          ],
          [
            99.891091,
            20.050525
          ],
          [
            99.891134,
            20.050675
          ],
          [
            99.891162,
            20.050774
          ],
          [
            99.891176,
            20.050825
          ],
          [
            99.89124,
            20.050966
          ],
          [
            99.891296,
            20.051077
          ],
          [
            99.891435,
            20.05132
          ],
          [
            99.891575,
            20.051567
          ],
          [
            99.891602,
            20.051606
          ],
          [
            99.891635,
            20.051643
          ],
          [
            99.891742,
            20.05177
          ],
          [
            99.892069,
            20.052164
          ],
          [
            99.89212,
            20.052224
          ],
          [
            99.892165,
            20.052285
          ],
          [
            99.8922,
            20.052348
          ],
          [
            99.892236,
            20.052411
          ],
          [
            99.892295,
            20.052548
          ],
          [
            99.89235,
            20.052682
          ],
          [
            99.892536,
            20.053317
          ],
          [
            99.892543,
            20.053336
          ],
          [
            99.892567,
            20.053383
          ],
          [
            99.892605,
            20.053458
          ],
          [
            99.892649,
            20.053544
          ],
          [
            99.89268,
            20.053593
          ],
          [
            99.892765,
            20.053731
          ],
          [
            99.892809,
            20.053794
          ],
          [
            99.892867,
            20.053852
          ],
          [
            99.892947,
            20.053934
          ],
          [
            99.893037,
            20.054017
          ],
          [
            99.893082,
            20.054058
          ],
          [
            99.893124,
            20.05409
          ],
          [
            99.893169,
            20.054122
          ],
          [
            99.893215,
            20.054155
          ],
          [
            99.893401,
            20.054287
          ],
          [
            99.893488,
            20.054345
          ],
          [
            99.893585,
            20.054397
          ],
          [
            99.893716,
            20.054464
          ],
          [
            99.893851,
            20.054519
          ],
          [
            99.894016,
            20.054573
          ],
          [
            99.89417,
            20.054613
          ],
          [
            99.894327,
            20.054658
          ],
          [
            99.894355,
            20.054666
          ],
          [
            99.894409,
            20.054689
          ],
          [
            99.894493,
            20.054723
          ],
          [
            99.89511,
            20.054979
          ],
          [
            99.89524,
            20.055029
          ],
          [
            99.895327,
            20.055055
          ],
          [
            99.895393,
            20.055067
          ],
          [
            99.895539,
            20.055082
          ],
          [
            99.895566,
            20.055082
          ],
          [
            99.895756,
            20.05507
          ],
          [
            99.895853,
            20.055063
          ],
          [
            99.895951,
            20.055061
          ],
          [
            99.896005,
            20.055063
          ],
          [
            99.896075,
            20.055081
          ],
          [
            99.896132,
            20.055108
          ],
          [
            99.896189,
            20.055136
          ],
          [
            99.896248,
            20.05518
          ],
          [
            99.896283,
            20.055217
          ],
          [
            99.896317,
            20.055268
          ],
          [
            99.896345,
            20.055326
          ],
          [
            99.89636,
            20.055359
          ],
          [
            99.896382,
            20.055454
          ],
          [
            99.896408,
            20.055546
          ],
          [
            99.896419,
            20.05568
          ],
          [
            99.896424,
            20.055749
          ],
          [
            99.896428,
            20.055859
          ],
          [
            99.89643,
            20.055914
          ],
          [
            99.896433,
            20.055941
          ],
          [
            99.896439,
            20.056014
          ],
          [
            99.896463,
            20.056247
          ],
          [
            99.896481,
            20.056326
          ],
          [
            99.896518,
            20.056416
          ],
          [
            99.896574,
            20.056552
          ],
          [
            99.896617,
            20.056634
          ],
          [
            99.896737,
            20.056843
          ],
          [
            99.897011,
            20.056739
          ],
          [
            99.897064,
            20.056822
          ],
          [
            99.897118,
            20.056909
          ],
          [
            99.897487,
            20.057552
          ],
          [
            99.897616,
            20.057724
          ],
          [
            99.897745,
            20.057886
          ],
          [
            99.897894,
            20.05805
          ],
          [
            99.898067,
            20.058225
          ],
          [
            99.89824,
            20.058382
          ],
          [
            99.898406,
            20.058529
          ],
          [
            99.898522,
            20.058629
          ],
          [
            99.898577,
            20.058667
          ],
          [
            99.898695,
            20.058739
          ],
          [
            99.898748,
            20.058763
          ],
          [
            99.89887,
            20.058816
          ],
          [
            99.899031,
            20.058863
          ],
          [
            99.899241,
            20.058924
          ],
          [
            99.899421,
            20.058946
          ],
          [
            99.899606,
            20.058957
          ],
          [
            99.899597,
            20.059044
          ],
          [
            99.899588,
            20.05913
          ]
        ]
      }
    }
  ]
}