{
  "type": "FeatureCollection",
  "features": [
    {
      "type": "Feature",
      "properties": {
        "routeId": "line1",
        "source": "admin-web-route-editor"
      },
      "geometry": {
        "type": "LineString",
        "coordinates": [
          [
            99.899588,
            20.05913
          ],
          [
            99.899498,
            20.059132
          ],
          [
            99.8994,
            20.059126
          ],
          [
            99.899205,
            20.0591
          ],
          [
            99.899009,
            20.059059
          ],
          [
            99.898818,
            20.059005
          ],
          [
            99.898428,
            20.058836
          ],
          [
            99.898071,
            20.058614
          ],
          [
            99.8977,
            20.05832
          ],
          [
            99.89754,
            20.058137
          ],
          [
            99.897393,
            20.057946
          ],
          [
            99.89712,
            20.057526
          ],
          [
            99.896862,
            20.057083
          ],
          [
            99.896772,
            20.056905
          ],
          [
            99.896672,
            20.056731
          ],
          [
            99.896602,
            20.056606
          ],
          [
            99.896572,
            20.056547
          ],
          [
            99.896544,
            20.056479
          ],
          [
            99.896481,
            20.056327
          ],
          [
            99.896463,
            20.056246
          ],
          [
            99.896456,
            20.056162
          ],
          [
            99.896437,
            20.056
          ],
          [
            99.896426,
            20.055838
          ],
          [
            99.896425,
            20.055763
          ],
          [
            99.896419,
            20.055689
          ],
          [
            99.89642,
            20.055688
          ],
          [
            99.896408,
            20.055546
          ],
          [
            99.896387,
            20.055468
          ],
          [
            99.896376,
            20.05543
          ],
          [
            99.89636,
            20.055356
          ],
          [
            99.89632,
            20.055271
          ],
          [
            99.896274,
            20.055205
          ],
          [
            99.896245,
            20.055177
          ],
          [
            99.896209,
            20.055152
          ],
          [
            99.896189,
            20.055136
          ],
          [
            99.896145,
            20.055115
          ],
          [
            99.896074,
            20.055082
          ],
          [
            99.896037,
            20.055071
          ],
          [
            99.895998,
            20.055062
          ],
          [
            99.895854,
            20.055063
          ],
          [
            99.895701,
            20.055074
          ],
          [
            99.895546,
            20.055082
          ],
          [
            99.895388,
            20.055067
          ],
          [
            99.895326,
            20.055055
          ],
          [
            99.895234,
            20.055027
          ],
          [
            99.895087,
            20.054971
          ],
          [
            99.894794,
            20.054845
          ],
          [
            99.894503,
            20.054727
          ],
          [
            99.894351,
            20.054665
          ],
          [
            99.894185,
            20.054617
          ],
          [
            99.894016,
            20.054573
          ],
          [
            99.893851,
            20.054519
          ],
          [
            99.893695,
            20.054454
          ],
          [
            99.893546,
            20.054376
          ],
          [
            99.893473,
            20.054335
          ],
          [
            99.8934,
            20.054287
          ],
          [
            99.893264,
            20.054187
          ],
          [
            99.893127,
            20.054092
          ],
          [
            99.89308,
            20.054056
          ],
          [
            99.892916,
            20.053904
          ],
          [
            99.892837,
            20.053823
          ],
          [
            99.892808,
            20.053793
          ],
          [
            99.892768,
            20.053735
          ],
          [
            99.892649,
            20.053545
          ],
          [
            99.892541,
            20.053333
          ],
          [
            99.892462,
            20.053063
          ],
          [
            99.89235,
            20.052683
          ],
          [
            99.892251,
            20.052447
          ],
          [
            99.892234,
            20.052408
          ],
          [
            99.892196,
            20.052339
          ],
          [
            99.892165,
            20.052285
          ],
          [
            99.892127,
            20.052233
          ],
          [
            99.892048,
            20.052137
          ],
          [
            99.891728,
            20.051753
          ],
          [
            99.891646,
            20.051657
          ],
          [
            99.891604,
            20.051608
          ],
          [
            99.891567,
            20.051557
          ],
          [
            99.891433,
            20.051316
          ],
          [
            99.891299,
            20.051082
          ],
          [
            99.891252,
            20.050993
          ],
          [
            99.891213,
            20.050909
          ],
          [
            99.891176,
            20.050823
          ],
          [
            99.891109,
            20.050585
          ],
          [
            99.891091,
            20.050524
          ],
          [
            99.891083,
            20.050408
          ],
          [
            99.89108,
            20.049983
          ],
          [
            99.891082,
            20.049877
          ],
          [
            99.891088,
            20.04977
          ],
          [
            99.891118,
            20.049558
          ],
          [
            99.89114,
            20.049451
          ],
          [
            99.891169,
            20.049346
          ],
          [
            99.891199,
            20.049234
          ],
          [
            99.891216,
            20.049172
          ],
          [
            99.891233,
            20.049129
          ],
          [
            99.891287,
            20.048998
          ],
          [
            99.891356,
            20.048874
          ],
          [
            99.891436,
            20.048883
          ],
          [
            99.891497,
            20.048878
          ],
          [
            99.89168,
            20.048807
          ],
          [
            99.891934,
            20.048698
          ],
          [
            99.892187,
            20.048583
          ],
          [
            99.892697,
            20.048355
          ],
          [
            99.892822,
            20.048299
          ],
          [
            99.892949,
            20.048242
          ],
          [
            99.892988,
            20.048227
          ],
          [
            99.893082,
            20.048193
          ],
          [
            99.893292,
            20.048145
          ],
          [
            99.893267,
            20.048084
          ],
          [
            99.893232,
            20.048029
          ],
          [
            99.893188,
            20.047971
          ],
          [
            99.893139,
            20.047927
          ],
          [
            99.893061,
            20.047968
          ],
          [
            99.892987,
            20.048017
          ],
          [
            99.892941,
            20.047873
          ],
          [
            99.893018,
            20.04774
          ],
          [
            99.8931,
            20.047613
          ],
          [
            99.893178,
            20.047494
          ],
          [
            99.893185,
            20.047479
          ],
          [
            99.893178,
            20.047366
          ],
          [
            99.893173,
            20.04723
          ],
          [
            99.893052,
            20.047226
          ],
          [
            99.892935,
            20.047597
          ],
          [
            99.892942,
            20.047873
          ],
          [
            99.892992,
            20.048039
          ],
          [
            99.893028,
            20.048212
          ],
          [
            99.892822,
            20.048299
          ],
          [
            99.892302,
            20.048532
          ],
          [
            99.891945,
            20.048692
          ],
          [
            99.891722,
            20.048788
          ],
          [
            99.891626,
            20.048827
          ],
          [
            99.891494,
            20.048647
          ],
          [
            99.891505,
            20.048628
          ],
          [
            99.891592,
            20.048486
          ],
          [
            99.891671,
            20.048359
          ],
          [
            99.89176,
            20.048254
          ],
          [
            99.891946,
            20.048036
          ],
          [
            99.891993,
            20.047985
          ],
          [
            99.892031,
            20.047929
          ],
          [
            99.8921,
            20.047804
          ],
          [
            99.892124,
            20.047733
          ],
          [
            99.892143,
            20.04766
          ],
          [
            99.892171,
            20.047507
          ],
          [
            99.892187,
            20.047325
          ],
          [
            99.892174,
            20.047143
          ],
          [
            99.892165,
            20.047067
          ],
          [
            99.89215,
            20.046998
          ],
          [
            99.892111,
            20.046854
          ],
          [
            99.892044,
            20.046716
          ],
          [
            99.891966,
            20.04659
          ],
          [
            99.891891,
            20.046459
          ],
          [
            99.89183,
            20.046321
          ],
          [
            99.891705,
            20.046046
          ],
          [
            99.891562,
            20.045776
          ],
          [
            99.891417,
            20.045507
          ],
          [
            99.891348,
            20.045358
          ],
          [
            99.891312,
            20.045199
          ],
          [
            99.891305,
            20.044857
          ],
          [
            99.891311,
            20.044775
          ],
          [
            99.891328,
            20.044694
          ],
          [
            99.891341,
            20.044614
          ],
          [
            99.891372,
            20.044536
          ],
          [
            99.891513,
            20.044226
          ],
          [
            99.891623,
            20.044219
          ],
          [
            99.892025,
            20.044216
          ],
          [
            99.892277,
            20.044179
          ],
          [
            99.892401,
            20.044162
          ],
          [
            99.892526,
            20.044143
          ],
          [
            99.89259,
            20.044134
          ],
          [
            99.892654,
            20.044126
          ],
          [
            99.892788,
            20.044114
          ],
          [
            99.892911,
            20.044101
          ],
          [
            99.893027,
            20.044071
          ],
          [
            99.893252,
            20.04397
          ],
          [
            99.893368,
            20.043919
          ],
          [
            99.893425,
            20.043893
          ],
          [
            99.893504,
            20.043857
          ],
          [
            99.893842,
            20.043709
          ],
          [
            99.893939,
            20.043685
          ],
          [
            99.894036,
            20.043669
          ],
          [
            99.894229,
            20.043657
          ],
          [
            99.894325,
            20.043669
          ],
          [
            99.894418,
            20.04369
          ],
          [
            99.894508,
            20.043713
          ],
          [
            99.894596,
            20.04374
          ],
          [
            99.894756,
            20.043826
          ],
          [
            99.894925,
            20.043899
          ],
          [
            99.895003,
            20.04391
          ],
          [
            99.895081,
            20.043915
          ],
          [
            99.895159,
            20.043916
          ],
          [
            99.895236,
            20.043915
          ],
          [
            99.895376,
            20.043906
          ],
          [
            99.895442,
            20.043887
          ],
          [
            99.895505,
            20.043863
          ],
          [
            99.895604,
            20.04382
          ],
          [
            99.895699,
            20.043763
          ],
          [
            99.895775,
            20.043702
          ],
          [
            99.895844,
            20.043634
          ],
          [
            99.895945,
            20.043564
          ],
          [
            99.896053,
            20.043501
          ],
          [
            99.896108,
            20.043478
          ],
          [
            99.896164,
            20.043462
          ],
          [
            99.896232,
            20.043456
          ],
          [
            99.8963,
            20.043477
          ],
          [
            99.896352,
            20.043513
          ],
          [
            99.896397,
            20.043558
          ],
          [
            99.89644,
            20.043534
          ],
          [
            99.896478,
            20.043505
          ],
          [
            99.896551,
            20.043439
          ],
          [
            99.896613,
            20.043365
          ],
          [
            99.896631,
            20.043344
          ],
          [
            99.896638,
            20.043323
          ],
          [
            99.896651,
            20.043276
          ],
          [
            99.896661,
            20.043206
          ],
          [
            99.896658,
            20.043171
          ],
          [
            99.89665,
            20.043136
          ],
          [
            99.89664,
            20.043095
          ],
          [
            99.896622,
            20.043057
          ],
          [
            99.896593,
            20.04302
          ],
          [
            99.896552,
            20.042995
          ],
          [
            99.896519,
            20.042981
          ],
          [
            99.896482,
            20.042974
          ],
          [
            99.896408,
            20.042963
          ],
          [
            99.896333,
            20.042959
          ],
          [
            99.896258,
            20.042962
          ],
          [
            99.896112,
            20.04298
          ],
          [
            99.896039,
            20.042991
          ],
          [
            99.895967,
            20.043007
          ],
          [
            99.895877,
            20.043031
          ],
          [
            99.895791,
            20.043064
          ],
          [
            99.895619,
            20.043137
          ],
          [
            99.89552,
            20.043182
          ],
          [
            99.895453,
            20.043224
          ],
          [
            99.895373,
            20.043276
          ],
          [
            99.895193,
            20.04339
          ],
          [
            99.895117,
            20.043423
          ],
          [
            99.895072,
            20.043436
          ],
          [
            99.895031,
            20.04344
          ],
          [
            99.894963,
            20.043424
          ],
          [
            99.894904,
            20.043394
          ],
          [
            99.894838,
            20.043438
          ],
          [
            99.89475,
            20.043466
          ],
          [
            99.894595,
            20.043517
          ],
          [
            99.894454,
            20.043557
          ],
          [
            99.894371,
            20.043569
          ],
          [
            99.894305,
            20.043595
          ],
          [
            99.894254,
            20.043622
          ],
          [
            99.894214,
            20.043658
          ],
          [
            99.894113,
            20.043664
          ],
          [
            99.894012,
            20.043672
          ],
          [
            99.893915,
            20.043691
          ],
          [
            99.893843,
            20.043709
          ],
          [
            99.893822,
            20.043718
          ],
          [
            99.893658,
            20.043789
          ],
          [
            99.893567,
            20.04383
          ],
          [
            99.89348,
            20.043867
          ],
          [
            99.89309,
            20.044042
          ],
          [
            99.893031,
            20.044069
          ],
          [
            99.893008,
            20.044076
          ],
          [
            99.892917,
            20.044099
          ],
          [
            99.892809,
            20.044112
          ],
          [
            99.892701,
            20.044121
          ],
          [
            99.892633,
            20.044128
          ],
          [
            99.892566,
            20.044138
          ],
          [
            99.892227,
            20.044187
          ],
          [
            99.892065,
            20.044211
          ],
          [
            99.892027,
            20.044216
          ],
          [
            99.891864,
            20.044218
          ],
          [
            99.891614,
            20.044219
          ],
          [
            99.891613,
            20.044219
          ],
          [
            99.891575,
            20.044222
          ],
          [
            99.891514,
            20.044226
          ],
          [
            99.891373,
            20.044196
          ],
          [
            99.891294,
            20.044396
          ],
          [
            99.891256,
            20.04449
          ],
          [
            99.891234,
            20.044535
          ],
          [
            99.891222,
            20.044583
          ],
          [
            99.891201,
            20.044677
          ],
          [
            99.891186,
            20.04477
          ],
          [
            99.891179,
            20.044964
          ],
          [
            99.891182,
            20.045054
          ],
          [
            99.891195,
            20.045142
          ],
          [
            99.891236,
            20.045315
          ],
          [
            99.891293,
            20.045484
          ],
          [
            99.891351,
            20.045657
          ],
          [
            99.891504,
            20.045968
          ],
          [
            99.891728,
            20.046247
          ],
          [
            99.891846,
            20.046399
          ],
          [
            99.891891,
            20.046459
          ],
          [
            99.891934,
            20.046536
          ],
          [
            99.892026,
            20.046685
          ],
          [
            99.892047,
            20.046722
          ],
          [
            99.892066,
            20.046762
          ],
          [
            99.892108,
            20.046845
          ],
          [
            99.892157,
            20.047028
          ],
          [
            99.892166,
            20.047077
          ],
          [
            99.892172,
            20.047127
          ],
          [
            99.892181,
            20.047225
          ],
          [
            99.892187,
            20.047331
          ],
          [
            99.892178,
            20.047425
          ],
          [
            99.892169,
            20.047519
          ],
          [
            99.892152,
            20.047612
          ],
          [
            99.892142,
            20.047661
          ],
          [
            99.892131,
            20.04771
          ],
          [
            99.8921,
            20.047805
          ],
          [
            99.892058,
            20.047883
          ],
          [
            99.892035,
            20.047922
          ],
          [
            99.891994,
            20.047985
          ],
          [
            99.891902,
            20.048088
          ],
          [
            99.891734,
            20.048284
          ],
          [
            99.891669,
            20.04836
          ],
          [
            99.891611,
            20.048455
          ],
          [
            99.891499,
            20.048638
          ],
          [
            99.891394,
            20.048808
          ],
          [
            99.891294,
            20.048984
          ],
          [
            99.891251,
            20.049087
          ],
          [
            99.891211,
            20.049191
          ],
          [
            99.891152,
            20.049405
          ],
          [
            99.891131,
            20.049494
          ],
          [
            99.891115,
            20.049584
          ],
          [
            99.891089,
            20.049762
          ],
          [
            99.891081,
            20.049944
          ],
          [
            99.891082,
            20.050126
          ],
          [
            99.891083,
            20.050305
          ],
          [
            99.891083,
            20.050393
          ],
          [
            99.891091,
            20.050525
          ],
          [
            99.891134,
            20.050675
          ],
          [
            99.891162,
            20.050774
          ],
          [
            99.891176,
            20.050825
          ],
          [
            99.89124,
            20.050966
          ],
          [
            99.891296,
            20.051077
          ],
          [
            99.891435,
            20.05132
          ],
          [
            99.891575,
            20.051567
          ],
          [
            99.891602,
            20.051606
          ],
          [
            99.891635,
            20.051643
          ],
          [
            99.891742,
            20.05177
          ],
          [
            99.892069,
            20.052164
          ],
          [
            99.89212,
            20.052224
          ],
          [
            99.892165,
            20.052285
          ],
          [
            99.8922,
            20.052348
          ],
          [
            99.892236,
            20.052411
          ],
          [
            99.892295,
            20.052548
          ],
          [
            99.89235,
            20.052682
          ],
          [
            99.892536,
            20.053317
          ],
          [
            99.892543,
            20.053336
          ],
          [
            99.892567,
            20.053383
          ],
          [
            99.892605,
            20.053458
          ],
          [
            99.892649,
            20.053544
          ],
          [
            99.89268,
            20.053593
          ],
          [
            99.892765,
            20.053731
          ],
          [
            99.892809,
            20.053794
          ],
          [
            99.892867,
            20.053852
          ],
          [
            99.892947,
            20.053934
          ],
          [
            99.893037,
            20.054017
          ],
          [
            99.893082,
            20.054058
          ],
          [
            99.893124,
            20.05409
          ],
          [
            99.893169,
            20.054122
          ],
          [
            99.893215,
            20.054155
          ],
          [
            99.893401,
            20.054287
          ],
          [
            99.893488,
            20.054345
          ],
          [
            99.893585,
            20.054397
          ],
          [
            99.893716,
            20.054464
          ],
          [
            99.893851,
            20.054519
          ],
          [
            99.894016,
            20.054573
          ],
          [
            99.89417,
            20.054613
          ],
          [
            99.894327,
            20.054658
          ],
          [
            99.894355,
            20.054666
          ],
          [
            99.894409,
            20.054689
          ],
          [
            99.894493,
            20.054723
          ],
          [
            99.89511,
            20.054979
          ],
          [
            99.89524,
            20.055029
          ],
          [
            99.895327,
            20.055055
          ],
          [
            99.895393,
            20.055067
          ],
          [
            99.895539,
            20.055082
          ],
          [
            99.895566,
            20.055082
          ],
          [
            99.895756,
            20.05507
          ],
          [
            99.895853,
            20.055063
          ],
          [
            99.895951,
            20.055061
          ],
          [
            99.896005,
            20.055063
          ],
          [
            99.896075,
            20.055081
          ],
          [
            99.896132,
            20.055108
          ],
          [
            99.896189,
            20.055136
          ],
          [
            99.896248,
            20.05518
          ],
          [
            99.896283,
            20.055217
          ],
          [
            99.896317,
            20.055268
          ],
          [
            99.896345,
            20.055326
          ],
          [
            99.89636,
            20.055359
          ],
          [
            99.896382,
            20.055454
          ],
          [
            99.896408,
            20.055546
          ],
          [
            99.896419,
            20.05568
          ],
          [
            99.896424,
            20.055749
          ],
          [
            99.896428,
            20.055859
          ],
          [
            99.89643,
            20.055914
          ],
          [
            99.896433,
            20.055941
          ],
          [
            99.896439,
            20.056014
          ],
          [
            99.896463,
            20.056247
          ],
          [
            99.896481,
            20.056326
          ],
          [
            99.896518,
            20.056416
          ],
          [
            99.896574,
            20.056552
          ],
          [
            99.896617,
            20.056634
          ],
          [
            99.896737,
            20.056843
          ],
          [
            99.897011,
            20.056739
          ],
          [
            99.897064,
            20.056822
          ],
          [
            99.897118,
            20.056909
          ],
          [
            99.897487,
            20.057552
          ],
          [
            99.897616,
            20.057724
          ],
          [
            99.897745,
            20.057886
          ],
          [
            99.897894,
            20.05805
          ],
          [
            99.898067,
            20.058225
          ],
          [
            99.89824,
            20.058382
          ],
          [
            99.898406,
            20.058529
          ],
          [
            99.898522,
            20.058629
          ],
          [
            99.898577,
            20.058667
          ],
          [
            99.898695,
            20.058739
          ],
          [
            99.898748,
            20.058763
          ],
          [
            99.89887,
            20.058816
          ],
          [
            99.899031,
            20.058863
          ],
          [
            99.899241,
            20.058924
          ],
          [
            99.899421,
            20.058946
          ],
          [
            99.899606,
            20.058957
          ],
          [
            99.899597,
            20.059044
          ],
          [
            99.899588,
            20.05913
          ]
        ]
      }
    }
  ]
}